KUIPER-00058            
1 64518U 25134U   25177.83335648  .00062041  00000+0  17828-2 0  9991
2 64518  51.8750 314.6687 0005584 112.4693 229.9086 15.35219307  1301
KUIPER-00059            
1 64519U 25134V   25177.83335648  .00062144  00000+0  17190-2 0  9998
2 64519  51.8801 314.6281 0001678  87.7650 267.5715 15.36420588  1297
KUIPER-00060            
1 64520U 25134W   25177.83335648  .00062642  00000+0  17443-2 0  9994
2 64520  51.8795 314.6384 0002702  86.6101 266.1839 15.36209248  1305
KUIPER-00061            
1 64521U 25134X   25177.83335648  .00062191  00000+0  17889-2 0  9998
2 64521  51.8770 314.6706 0006620 118.1417 222.0991 15.35180869  1307
KUIPER-00062            
1 64522U 25134Y   25177.83335648  .00062086  00000+0  17707-2 0  9991
2 64522  51.8775 314.6593 0005001 101.0884 244.1364 15.35457787  1303
KUIPER-00063            
1 64523U 25134Z   25177.83335648  .00062318  00000+0  17474-2 0  9991
2 64523  51.8781 314.6483 0003342 104.7647 245.3991 15.35992624  1305
KUIPER-00064            
1 64524U 25134AA  25177.83335648  .00062697  00000+0  17285-2 0  9992
2 64524  51.8799 314.6277 0001575  63.8702 292.6548 15.36521014  1607
KUIPER-00065            
1 64525U 25134AB  25177.83335648  .00062035  00000+0  18322-2 0  9992
2 64525  51.8731 314.6931 0009487 125.6852 205.4861 15.34329048  1548
KUIPER-00066            
1 64526U 25134AC  25177.83335648  .00062275  00000+0  17285-2 0  9996
2 64526  51.8791 314.6380 0002125  93.6623 260.2808 15.36313362  1303
2025-131C               
1 64527U 25131C   25177.76946395 -.00000358  00000+0  00000+0 0  9992
2 64527   1.0755 280.4575 3664681 173.8334 201.2916  1.00666495    51
AXIOM-4 (AX-4)          
1 64593U 25136A   25177.48174864  .00008021  00000+0  14708-3 0  9991
2 64593  51.6356 261.0122 0002166 294.7319  65.3444 15.50251987   198
2025-138A               
1 64621U 25138A   25177.83856524 -.00000065  00000+0  00000+0 0  9991
2 64621  97.4382 182.4568 0013193 299.2977 148.9700 15.14287535    11
2025-138B               
1 64622U 25138B   25177.83856541 -.00000065  00000+0  00000+0 0  9991
2 64622  97.4383 182.4573 0012698 292.4088 155.9330 15.14569219    15
2025-138C               
1 64623U 25138C   25177.83798743 -.00000066  00000+0  00000+0 0  9992
2 64623  97.4385 182.4570 0014166 294.7990 150.4324 15.14691374    15
2025-138D               
1 64624U 25138D   25177.83889047 -.00000066  00000+0  00000+0 0  9991
2 64624  97.4382 182.4574 0014861 285.3122 164.9712 15.15191491    08
2025-138E               
1 64625U 25138E   25177.89257553 -.00000650  20517-5  00000+0 0  9999
2 64625  97.4386 183.0098 0271941   9.1919  32.5550 15.48760178    23
2025-138F               
1 64626U 25138F   25177.89893358 -.00000664  21029-5  00000+0 0  9993
2 64626  97.3361 182.5749 0262050 212.9420 236.1330 15.45522647    27
